HST                     
1 20580U 90037B   26165.14417512  .00006344  00000+0  19999-3 0  9995
2 20580  28.4715 101.3706 0001912 110.8714 249.2086 15.30716351788104
POLAR                   
1 23802U 96013A   26164.95607492  .00000147  00000+0  00000+0 0  9995
2 23802  79.8497 227.0901 6467269 209.1905  89.6377  1.29846142144813
SWAS                    
1 25560U 98071A   26165.49779138  .00003098  00000+0  19863-3 0  9990
2 25560  69.8959 234.4549 0008700 263.0177  96.9998 15.09613148496869
CXO                     
1 25867U 99040B   26166.73124906  .00000579  00000+0  00000+0 0  9992
2 25867  56.1776 116.6293 7842889 310.3072   0.0447  0.37804362 17312
XMM-NEWTON              
1 25989U 99066A   26167.35230823  .00000036  00000+0  00000+0 0  9998
2 25989  64.4922 282.9960 4674560  64.9442   0.1261  0.50126459 23006
TERRA                   
1 25994U 99068A   26165.49902449  .00000343  00000+0  78741-4 0  9992
2 25994  97.9457 215.1518 0001370 199.3330 302.4932 14.61101134409215
CLUSTER II-FM7 (SAMBA)  
1 26410U 00041A   26168.13893488  .00013374  00000+0  00000+0 0  9991
2 26410 149.9162  50.9861 9054057 268.1289 359.6411  0.44866443 20305
CLUSTER II-FM8 (TANGO)  
1 26464U 00045B   26163.93604630  .00006612  00000+0  00000+0 0  9993
2 26464 150.1471  51.3037 9053901 268.2440   3.0100  0.44405929 20299
ODIN                    
1 26702U 01007A   26165.49014215  .00172083  00000+0  11407-2 0  9996
2 26702  97.3842 206.2610 0006746 145.7949 214.3752 15.74977576388978
TIMED                   
1 26998U 01055B   26165.46578367  .00001069  00000+0  10065-3 0  9991
2 26998  74.0674 240.4979 0000969 340.8589  19.2559 14.95290054330411
CORIOLIS                
1 27640U 03001A   26165.51950831  .00000078  00000+0  57194-4 0  9999
2 27640  98.7125 172.4450 0013226 216.8915 143.1352 14.19944113213846
SORCE                   
1 27651U 03004A   26165.01808587  .00002811  00000+0  21181-3 0  9992
2 27651  39.9912 279.7591 0016874  25.2759 334.8857 15.03698606271420
MOST                    
1 27843U 03031D   26165.46581169  .00000055  00000+0  45143-4 0  9991
2 27843  98.7045 173.2298 0008696 259.3393 100.6805 14.21321977190326
SCISAT 1                
1 27858U 03036A   26165.45691816  .00000438  00000+0  60594-4 0  9994
2 27858  73.9285 176.7676 0008611 246.3463 113.6810 14.81445217231047
SWIFT                   
1 28485U 04047A   26164.81561905  .00048901  00000+0  41135-3 0  9994
2 28485  20.5521 210.9067 0001739 231.5121 128.5169 15.68026337186338
HINODE (SOLAR-B)        
1 29479U 06041A   26165.32383154  .00000611  00000+0  11344-3 0  9994
2 29479  98.0549 181.5186 0016103 299.6814  60.2788 14.68619532 54452
SHIJIAN-6 02A (SJ-6 02A)
1 29505U 06046A   26165.51897431  .00010664  00000+0  54387-3 0  9991
2 29505  97.6364 206.5658 0004226 131.1852 228.9746 15.16922982 71860
SHIJIAN-6 02B (SJ-6 02B)
1 29506U 06046B   26165.48050760  .00001737  00000+0  13916-3 0  9998
2 29506  97.7161 194.5560 0015246  68.1655 292.1189 15.01372560 70339
FGRST (GLAST)           
1 33053U 08029A   26165.47848543  .00002839  00000+0  10056-3 0  9992
2 33053  25.5809 223.2915 0007603 295.7412  64.2341 15.23937135995423
SDO                     
1 36395U 10005A   26165.43714221 -.00000094  00000+0  00000+0 0  9998
2 36395  34.6460  86.3840 0001714  49.5303 182.1298  1.00269990 60033
CRYOSAT 2               
1 36508U 10013A   26165.46254001  .00000168  00000+0  40873-4 0  9999
2 36508  92.0352 276.6393 0002175  88.3982 271.7475 14.51898246857689
X-SAT                   
1 37389U 11015C   26165.48751733  .00000299  00000+0  14478-3 0  9992
2 37389  98.3501 142.6391 0014176 356.4937   3.6142 14.25206180787298
GCOM-W1 (SHIZUKU)       
1 38337U 12025A   26165.43363690  .00000403  00000+0  99418-4 0  9999
2 38337  98.2022 106.0310 0001816  77.0026  38.0197 14.57122341748634
NUSTAR                  
1 38358U 12031A   26165.58335647  .00002616  00000+0  10888-3 0  9997
2 38358   6.0275  53.6664 0006746  63.6791 242.9779 15.08783484  1306
NEOSSAT                 
1 39089U 13009D   26165.49174002  .00000129  00000+0  59314-4 0  9996
2 39089  98.4176 345.5885 0009830 252.8028 107.2082 14.35825559696357
BRITE-AUSTRIA           
1 39091U 13009F   26165.49170767  .00000150  00000+0  65713-4 0  9997
2 39091  98.3993 344.9941 0009057 245.5657 114.4585 14.36541132696665
IRIS                    
1 39197U 13033A   26165.47123860  .00000941  00000+0  11397-3 0  9997
2 39197  97.9331   4.7568 0023729 331.0165  28.9731 14.85880528699974
HISAKI (SPRINT-A)       
1 39253U 13049A   26165.47734708  .00000136  00000+0  98100-4 0  9990
2 39253  29.7188 233.7905 0136864 354.8880   5.0294 13.55544513631053
CASSIOPE                
1 39265U 13055A   26165.47204066  .00047970 -45400-6  52514-3 0  9995
2 39265  80.9158  70.0186 0293684  71.5638 291.7279 15.24952306667252
STSAT-3                 
1 39422U 13066G   26165.51591701  .00003631  00000+0  27585-3 0  9997
2 39422  97.6212 135.4470 0011171  51.9680 308.2551 15.02744012683808
SWARM B                 
1 39451U 13067A   26165.51515294  .00003243  00000+0  11561-3 0  9999
2 39451  87.7433 343.1287 0003347  87.3575 272.8057 15.28536857682834
